CTC1_L_00041016-03
1 79354U 23651PP  26070.40831019  .00000000  00000+0  00000-0 0  9995
2 79354  45.0000 180.0000 0000000   0.0000   0.0000 15.59190035    17
CTC1_L_00041016-04
1 79355U 23327RO  26070.40831019  .00000000  00000+0  00000-0 0  9996
2 79355  45.0000 180.0000 0000000   0.0000  90.0000 15.59190035    17
CTC1_L_00041017-01
1 79356U 23071IE  26070.40831019  .00000000  00000+0  00000-0 0  9993
2 79356  45.0000 192.0000 0000000   0.0000 192.0000 15.59190035    14
CTC1_L_00041017-02
1 79357U 24768AQ  26070.40831019  .00000000  00000+0  00000-0 0  9998
2 79357  45.0000 192.0000 0000000   0.0000 282.0000 15.59190035    15
CTC1_L_00041017-03
1 79358U 22916HE  26070.40831019  .00000000  00000+0  00000-0 0  9992
2 79358  45.0000 192.0000 0000000   0.0000  12.0000 15.59190035    17
CTC1_L_00041017-04
1 79359U 26488UE  26070.40831019  .00000000  00000+0  00000-0 0  9991
2 79359  45.0000 192.0000 0000000   0.0000 102.0000 15.59190035    18
CTC1_L_00041018-01
1 79360U 25676XH  26070.40831019  .00000000  00000+0  00000-0 0  9991
2 79360  45.0000 204.0000 0000000   0.0000 204.0000 15.59190035    17
CTC1_L_00041018-02
1 79361U 24460BP  26070.40831019  .00000000  00000+0  00000-0 0  9992
2 79361  45.0000 204.0000 0000000   0.0000 294.0000 15.59190035    17
CTC1_L_00041018-03
1 79362U 26035VC  26070.40831019  .00000000  00000+0  00000-0 0  9993
2 79362  45.0000 204.0000 0000000   0.0000  24.0000 15.59190035    19
CTC1_L_00041018-04
1 79363U 26251FA  26070.40831019  .00000000  00000+0  00000-0 0  9994
2 79363  45.0000 204.0000 0000000   0.0000 114.0000 15.59190035    10
CTC1_L_00041019-01
1 79364U 22721YS  26070.40831019  .00000000  00000+0  00000-0 0  9993
2 79364  45.0000 216.0000 0000000   0.0000 216.0000 15.59190035    17
CTC1_L_00041019-02
1 79365U 22345HG  26070.40831019  .00000000  00000+0  00000-0 0  9996
2 79365  45.0000 216.0000 0000000   0.0000 306.0000 15.59190035    18
CTC1_L_00041019-03
1 79366U 22689LL  26070.40831019  .00000000  00000+0  00000-0 0  9998
2 79366  45.0000 216.0000 0000000   0.0000  36.0000 15.59190035    19
CTC1_L_00041019-04
1 79367U 25729CL  26070.40831019  .00000000  00000+0  00000-0 0  9997
2 79367  45.0000 216.0000 0000000   0.0000 126.0000 15.59190035    10
CTC1_L_00041020-01
1 79368U 26042XF  26070.40831019  .00000000  00000+0  00000-0 0  9997
2 79368  45.0000 228.0000 0000000   0.0000 228.0000 15.59190035    17
CTC1_L_00041020-02
1 79369U 26156MG  26070.40831019  .00000000  00000+0  00000-0 0  9994
2 79369  45.0000 228.0000 0000000   0.0000 318.0000 15.59190035    18
CTC1_L_00041020-03
1 79370U 26906LT  26070.40831019  .00000000  00000+0  00000-0 0  9999
2 79370  45.0000 228.0000 0000000   0.0000  48.0000 15.59190035    10
CTC1_L_00041020-04
1 79371U 25108TN  26070.40831019  .00000000  00000+0  00000-0 0  9993
2 79371  45.0000 228.0000 0000000   0.0000 138.0000 15.59190035    11
CTC1_L_00041021-01
1 79372U 22445SM  26070.40831019  .00000000  00000+0  00000-0 0  9995
2 79372  45.0000 240.0000 0000000   0.0000 240.0000 15.59190035    10
CTC1_L_00041021-02
1 79373U 23449HF  26070.40831019  .00000000  00000+0  00000-0 0  9991
2 79373  45.0000 240.0000 0000000   0.0000 330.0000 15.59190035    11
CTC1_L_00041021-03
1 79374U 24608KF  26070.40831019  .00000000  00000+0  00000-0 0  9990
2 79374  45.0000 240.0000 0000000   0.0000  60.0000 15.59190035    12
CTC1_L_00041021-04
1 79375U 26087OF  26070.40831019  .00000000  00000+0  00000-0 0  9994
2 79375  45.0000 240.0000 0000000   0.0000 150.0000 15.59190035    13
CTC1_L_00041022-01
1 79376U 24717DI  26070.40831019  .00000000  00000+0  00000-0 0  9993
2 79376  45.0000 252.0000 0000000   0.0000 252.0000 15.59190035    10
CTC1_L_00041022-02
1 79377U 25492JM  26070.40831019  .00000000  00000+0  00000-0 0  9995
2 79377  45.0000 252.0000 0000000   0.0000 342.0000 15.59190035    11
CTC1_L_00041022-03
1 79378U 25464FV  26070.40831019  .00000000  00000+0  00000-0 0  9995
2 79378  45.0000 252.0000 0000000   0.0000  72.0000 15.59190035    12
CTC1_L_00041022-04
1 79379U 23028SR  26070.40831019  .00000000  00000+0  00000-0 0  9990
2 79379  45.0000 252.0000 0000000   0.0000 162.0000 15.59190035    13
CTC1_L_00041023-01
1 79380U 26978QA  26070.40831019  .00000000  00000+0  00000-0 0  9999
2 79380  45.0000 264.0000 0000000   0.0000 264.0000 15.59190035    11
CTC1_L_00041023-02
1 79381U 26444PI  26070.40831019  .00000000  00000+0  00000-0 0  9998
2 79381  45.0000 264.0000 0000000   0.0000 354.0000 15.59190035    12
CTC1_L_00041023-03
1 79382U 23986MR  26070.40831019  .00000000  00000+0  00000-0 0  9997
2 79382  45.0000 264.0000 0000000   0.0000  84.0000 15.59190035    13
CTC1_L_00041023-04
1 79383U 25775UF  26070.40831019  .00000000  00000+0  00000-0 0  9996
2 79383  45.0000 264.0000 0000000   0.0000 174.0000 15.59190035    14
CTC1_L_00041024-01
1 79384U 24328LJ  26070.40831019  .00000000  00000+0  00000-0 0  9990
2 79384  45.0000 276.0000 0000000   0.0000 276.0000 15.59190035    11
CTC1_L_00041024-02
1 79385U 26344IZ  26070.40831019  .00000000  00000+0  00000-0 0  9991
2 79385  45.0000 276.0000 0000000   0.0000   6.0000 15.59190035    13
CTC1_L_00041024-03
1 79386U 22061WR  26070.40831019  .00000000  00000+0  00000-0 0  9994
2 79386  45.0000 276.0000 0000000   0.0000  96.0000 15.59190035    13
CTC1_L_00041024-04
1 79387U 22714VX  26070.40831019  .00000000  00000+0  00000-0 0  9990
2 79387  45.0000 276.0000 0000000   0.0000 186.0000 15.59190035    14
CTC1_L_00041025-01
1 79388U 26588XB  26070.40831019  .00000000  00000+0  00000-0 0  9994
2 79388  45.0000 288.0000 0000000   0.0000 288.0000 15.59190035    11
CTC1_L_00041025-02
1 79389U 25887WE  26070.40831019  .00000000  00000+0  00000-0 0  9996
2 79389  45.0000 288.0000 0000000   0.0000  18.0000 15.59190035    13
CTC1_L_00041025-03
1 79390U 26091CC  26070.40831019  .00000000  00000+0  00000-0 0  9996
2 79390  45.0000 288.0000 0000000   0.0000 108.0000 15.59190035    15
CTC1_L_00041025-04
1 79391U 26570ZB  26070.40831019  .00000000  00000+0  00000-0 0  9999
2 79391  45.0000 288.0000 0000000   0.0000 198.0000 15.59190035    15
CTC1_L_00041026-01
1 79392U 22282J   26070.40831019  .00000000  00000+0  00000-0 0  9996
2 79392  45.0000 300.0000 0000000   0.0000 300.0000 15.59190035    16
CTC1_L_00041026-02
1 79393U 24632XJ  26070.40831019  .00000000  00000+0  00000-0 0  9998
2 79393  45.0000 300.0000 0000000   0.0000  30.0000 15.59190035    17
CTC1_L_00041026-03
1 79394U 25944EC  26070.40831019  .00000000  00000+0  00000-0 0  9996
2 79394  45.0000 300.0000 0000000   0.0000 120.0000 15.59190035    18
CTC1_L_00041026-04
1 79395U 22056RW  26070.40831019  .00000000  00000+0  00000-0 0  9998
2 79395  45.0000 300.0000 0000000   0.0000 210.0000 15.59190035    19
CTC1_L_00041027-01
1 79396U 24791EO  26070.40831019  .00000000  00000+0  00000-0 0  9997
2 79396  45.0000 312.0000 0000000   0.0000 312.0000 15.59190035    16
CTC1_L_00041027-02
1 79397U 25683ZU  26070.40831019  .00000000  00000+0  00000-0 0  9999
2 79397  45.0000 312.0000 0000000   0.0000  42.0000 15.59190035    17
CTC1_L_00041027-03
1 79398U 22127HU  26070.40831019  .00000000  00000+0  00000-0 0  9990
2 79398  45.0000 312.0000 0000000   0.0000 132.0000 15.59190035    18
CTC1_L_00041027-04
1 79399U 22119EK  26070.40831019  .00000000  00000+0  00000-0 0  9992
2 79399  45.0000 312.0000 0000000   0.0000 222.0000 15.59190035    19
CTC1_L_00041028-01
1 79400U 24865ZK  26070.40831019  .00000000  00000+0  00000-0 0  9995
2 79400  45.0000 324.0000 0000000   0.0000 324.0000 15.59190035    18
CTC1_L_00041028-02
1 79401U 23368LK  26070.40831019  .00000000  00000+0  00000-0 0  9993
2 79401  45.0000 324.0000 0000000   0.0000  54.0000 15.59190035    19
CTC1_L_00041028-03
1 79402U 23091VC  26070.40831019  .00000000  00000+0  00000-0 0  9997
2 79402  45.0000 324.0000 0000000   0.0000 144.0000 15.59190035    10
CTC1_L_00041028-04
1 79403U 23877TM  26070.40831019  .00000000  00000+0  00000-0 0  9990
2 79403  45.0000 324.0000 0000000   0.0000 234.0000 15.59190035    11
CTC1_L_00041029-01
1 79404U 24396IZ  26070.40831019  .00000000  00000+0  00000-0 0  9998
2 79404  45.0000 336.0000 0000000   0.0000 336.0000 15.59190035    18
CTC1_L_00041029-02
1 79405U 25006TM  26070.40831019  .00000000  00000+0  00000-0 0  9998
2 79405  45.0000 336.0000 0000000   0.0000  66.0000 15.59190035    19
CTC1_L_00041029-03
1 79406U 22021MM  26070.40831019  .00000000  00000+0  00000-0 0  9993
2 79406  45.0000 336.0000 0000000   0.0000 156.0000 15.59190035    10
CTC1_L_00041029-04
1 79407U 23443BX  26070.40831019  .00000000  00000+0  00000-0 0  9993
2 79407  45.0000 336.0000 0000000   0.0000 246.0000 15.59190035    11
CTC1_L_00041030-01
1 79408U 26499WH  26070.40831019  .00000000  00000+0  00000-0 0  9998
2 79408  45.0000 348.0000 0000000   0.0000 348.0000 15.59190035    18
CTC1_L_00041030-02
1 79409U 23780KH  26070.40831019  .00000000  00000+0  00000-0 0  9999
2 79409  45.0000 348.0000 0000000   0.0000  78.0000 15.59190035    19
CTC1_L_00041030-03
1 79410U 26570EA  26070.40831019  .00000000  00000+0  00000-0 0  9991
2 79410  45.0000 348.0000 0000000   0.0000 168.0000 15.59190035    11
CTC1_L_00041030-04
1 79411U 25802HD  26070.40831019  .00000000  00000+0  00000-0 0  9999
2 79411  45.0000 348.0000 0000000   0.0000 258.0000 15.59190035    12
